CZ-2C R/B               
1 54039U 22132E   26005.47179705  .00047140  00000+0  65784-3 0  9992
2 54039  97.2940   7.1509 0018454 332.5882  27.4398 15.56550529180521
GSLV R/B                
1 54149U 22138AN  26005.53170260  .00003487  00000+0  30475-3 0  9999
2 54149  87.3824 187.5050 0022733  26.9318 333.3087 14.96286529174482
XRISM                   
1 57800U 23137A   26005.22731405  .00008629  00000+0  50275-3 0  9999
2 57800  31.0036 333.8710 0007698 124.3263 235.8104 15.10661502128181
ACS3                    
1 59588U 24077B   26005.57535403  .00021377  00000+0  17980-1 0  9995
2 59588  97.2500 320.8553 0067567 278.6324  80.7187 13.86805779 85445
SZ-21 MODULE            
1 66515U 25246C   26004.98707992  .00031246  00000+0  32469-3 0  9997
2 66515  41.4747 234.0941 0001852  45.0993 314.9997 15.63935128  8082
