CCSDS_OMM_VERS = 2.0
CREATION_DATE  = 
ORIGINATOR     = 

OBJECT_NAME    = CZ-2C R/B
OBJECT_ID      = 2022-132E
CENTER_NAME    = EARTH
REF_FRAME      = TEME
TIME_SYSTEM    = UTC
MEAN_ELEMENT_THEORY = SGP/SGP4

EPOCH          = 2026-01-05T11:19:23.265120
MEAN_MOTION    = 15.56550529
ECCENTRICITY   = .00184544
INCLINATION    = 97.2940
RA_OF_ASC_NODE = 7.1509
ARG_OF_PERICENTER = 332.5882
MEAN_ANOMALY   = 27.4398

EPHEMERIS_TYPE = 0
CLASSIFICATION_TYPE = U
NORAD_CAT_ID   = 54039
ELEMENT_SET_NO = 999
REV_AT_EPOCH   = 18052
BSTAR          = .6578429E-3
MEAN_MOTION_DOT = .4714E-3
MEAN_MOTION_DDOT = 0

CCSDS_OMM_VERS = 2.0
CREATION_DATE  = 
ORIGINATOR     = 

OBJECT_NAME    = GSLV R/B
OBJECT_ID      = 2022-138AN
CENTER_NAME    = EARTH
REF_FRAME      = TEME
TIME_SYSTEM    = UTC
MEAN_ELEMENT_THEORY = SGP/SGP4

EPOCH          = 2026-01-05T12:45:39.104640
MEAN_MOTION    = 14.96286529
ECCENTRICITY   = .00227335
INCLINATION    = 87.3824
RA_OF_ASC_NODE = 187.5050
ARG_OF_PERICENTER = 26.9318
MEAN_ANOMALY   = 333.3087

EPHEMERIS_TYPE = 0
CLASSIFICATION_TYPE = U
NORAD_CAT_ID   = 54149
ELEMENT_SET_NO = 999
REV_AT_EPOCH   = 17448
BSTAR          = .30475432E-3
MEAN_MOTION_DOT = .3487E-4
MEAN_MOTION_DDOT = 0

CCSDS_OMM_VERS = 2.0
CREATION_DATE  = 
ORIGINATOR     = 

OBJECT_NAME    = XRISM
OBJECT_ID      = 2023-137A
CENTER_NAME    = EARTH
REF_FRAME      = TEME
TIME_SYSTEM    = UTC
MEAN_ELEMENT_THEORY = SGP/SGP4

EPOCH          = 2026-01-05T05:27:19.933920
MEAN_MOTION    = 15.10661502
ECCENTRICITY   = .0007698
INCLINATION    = 31.0036
RA_OF_ASC_NODE = 333.8710
ARG_OF_PERICENTER = 124.3263
MEAN_ANOMALY   = 235.8104

EPHEMERIS_TYPE = 0
CLASSIFICATION_TYPE = U
NORAD_CAT_ID   = 57800
ELEMENT_SET_NO = 999
REV_AT_EPOCH   = 12818
BSTAR          = .50275E-3
MEAN_MOTION_DOT = .8629E-4
MEAN_MOTION_DDOT = 0

CCSDS_OMM_VERS = 2.0
CREATION_DATE  = 
ORIGINATOR     = 

OBJECT_NAME    = ACS3
OBJECT_ID      = 2024-077B
CENTER_NAME    = EARTH
REF_FRAME      = TEME
TIME_SYSTEM    = UTC
MEAN_ELEMENT_THEORY = SGP/SGP4

EPOCH          = 2026-01-05T13:48:30.588192
MEAN_MOTION    = 13.86805779
ECCENTRICITY   = .0067567
INCLINATION    = 97.2500
RA_OF_ASC_NODE = 320.8553
ARG_OF_PERICENTER = 278.6324
MEAN_ANOMALY   = 80.7187

EPHEMERIS_TYPE = 0
CLASSIFICATION_TYPE = U
NORAD_CAT_ID   = 59588
ELEMENT_SET_NO = 999
REV_AT_EPOCH   = 8544
BSTAR          = .1797967E-1
MEAN_MOTION_DOT = .21377E-3
MEAN_MOTION_DDOT = 0

CCSDS_OMM_VERS = 2.0
CREATION_DATE  = 
ORIGINATOR     = 

OBJECT_NAME    = SZ-21 MODULE
OBJECT_ID      = 2025-246C
CENTER_NAME    = EARTH
REF_FRAME      = TEME
TIME_SYSTEM    = UTC
MEAN_ELEMENT_THEORY = SGP/SGP4

EPOCH          = 2026-01-04T23:41:23.705088
MEAN_MOTION    = 15.63935128
ECCENTRICITY   = .00018525
INCLINATION    = 41.4747
RA_OF_ASC_NODE = 234.0941
ARG_OF_PERICENTER = 45.0993
MEAN_ANOMALY   = 314.9997

EPHEMERIS_TYPE = 0
CLASSIFICATION_TYPE = U
NORAD_CAT_ID   = 66515
ELEMENT_SET_NO = 999
REV_AT_EPOCH   = 808
BSTAR          = .32468625E-3
MEAN_MOTION_DOT = .31246E-3
MEAN_MOTION_DDOT = 0

